<?xml version="1.0" encoding="UTF-8"?>
<osm version="0.6" generator="pathcraft-fixture">
  <!-- Toy fixture used by tests and benchmarks. Six nodes along Recife
       coordinates. Way 102 is oneway so car routing 6->5 must fail while
       walking stays open in both directions. -->
  <node id="1" lat="-8.05428" lon="-34.88130"/>
  <node id="2" lat="-8.05440" lon="-34.88100"/>
  <node id="3" lat="-8.05455" lon="-34.88070"/>
  <node id="4" lat="-8.05480" lon="-34.88030"/>
  <node id="5" lat="-8.05500" lon="-34.88000"/>
  <node id="6" lat="-8.05520" lon="-34.87970"/>
  <way id="100">
    <nd ref="1"/>
    <nd ref="2"/>
    <nd ref="3"/>
    <nd ref="4"/>
    <tag k="highway" v="residential"/>
    <tag k="name" v="Rua Exemplo"/>
  </way>
  <way id="101">
    <nd ref="4"/>
    <nd ref="5"/>
    <tag k="highway" v="residential"/>
    <tag k="name" v="Travessa Exemplo"/>
  </way>
  <way id="102">
    <nd ref="5"/>
    <nd ref="6"/>
    <tag k="highway" v="residential"/>
    <tag k="name" v="Rua Sentido Unico"/>
    <tag k="oneway" v="yes"/>
  </way>
</osm>
